#dP2018 10 15  0  0  0.00000000      96 __u+U ITR00 FIT  IAC
## 2023  86400.00000000   900.00000000 58406 0.0000000000000
+   91   C01C02C03C04C05C06C07C08C09C10C11C12C13C14E01E02E03
+        E04E05E07E08E09E11E12E14E18E19E21E24E25E26E27E30E31
+        G01G02G03G05G06G07G08G09G10G11G12G13G14G15G16G17G18
+        G19G20G21G22G23G24G25G26G27G28G29G30G31G32J01J02J03
+        R01R02R03R04R05R07R08R09R10R11R13R14R15R16R17R18R19
+        R20R21R22R23R24R26  0  0  0  0  0  0  0  0  0  0  0
++        12 12 15 12 12  9  9  9  8  8  8  8  8  8  6  6  6
++         6  6  7  6  6  6  6  7  7  6  6  6  6  6  7  7  6
++         3  3  3  3  3  3  3  3  3  3  3  3  3  3  3  3  3
++         3  3  3  3  3  3  3  3  3  3  3  3  3  3 10 10 11
++         5  5  5  5  5  5  5  5  5  5  6  6  5  5  5  5  5
++         5  5  6  5  6  8  0  0  0  0  0  0  0  0  0  0  0
%c M  cc GPS ccc cccc cccc cccc cccc ccccc ccccc ccccc ccccc
%c cc cc ccc ccc cccc cccc cccc cccc ccccc ccccc ccccc ccccc
%f  0.0000000  0.000000000  0.00000000000  0.000000000000000
%f  0.0000000  0.000000000  0.00000000000  0.000000000000000
%i    0    0    0    0      0      0      0      0         0
%i    0    0    0    0      0      0      0      0         0
/* INFORMATION & ANALYSIS CENTER (IAC) OF MCC   (RAPID DATA)
/* S/V CLOCKS ARE ALIGNED TO GPS & GLONASS TIME RESPECTIVELY
/* USING THE BROADCAST EPHEMERIS                            
/* PCV:IGS14_2022 OL/AL:FES2004  NONE     YN ORB:CoN CLK:CoN
*  2018 10 15 21 15  0.00000000
PC01 -32289.311135  27077.840285    988.237508   -237.512171
PC02   4383.293883  41960.284888   -267.407383    -28.181739
PC03 -14776.598129  39465.358555    527.407282   -255.419967
PC04 -39607.120608  14412.988284    530.657000    -74.595287
PC05  21868.375932  36041.310695   -493.176340    225.728236
PC06 -13424.918026  20697.232255 -33921.981450    383.902863
PC07 -23466.769317  31758.275980  14212.949440    -95.595563
PC08  -9612.664646  35564.906231  20823.066859     -1.509832
PC09   4845.750370  27762.419248 -31095.942491    201.252742
PC10 -10725.060931  32383.598531  24690.334341   -156.554230
PC11  15840.368366  23027.198404    436.001436      3.144233
PC12   1642.898172  21927.705020  17299.648580    152.727331
PC13    482.627382  41913.015304   5798.390475   -327.512944
PC14  13105.456957  13234.321981 -20713.313494    610.312785
PE01 -23623.196468  16110.820496  -7628.461633   -456.826321
PE02  23625.507137 -16129.832736   7611.730090     31.319867
PE03  24122.244589  -5246.297365  16342.525809    -88.624606
PE04  -5936.410391  16120.690099 -24103.366001   -138.411827
PE05  28257.971085   8757.382081  -1035.159675    176.373744
PE07 -15846.818989 -17596.509337  17757.893072    -57.135494
PE08   5720.333987 -16046.524152  24207.481906   6482.335281
PE09  16044.805024  17351.697103 -17829.424745   6646.824024
PE11  10905.470484  26982.704072  -5389.965141   5696.387590
PE12  -2426.314810  26197.773167  13556.593096   5279.867985
PE14  23924.816734   -103.857690 -19469.577100   6504.194182
PE18 -22146.679949 -10916.504612   8509.464611   5830.135725
PE19 -25236.994050   3875.605480 -14976.632597    -11.391747
PE21 -19440.100249  -1374.570981 -22270.458138   -499.657011
PE24   4373.497360  17384.026620  23555.650501   6439.850816
PE25  19440.367675   1395.735944  22294.174009   2012.300758
PE26 -17511.700107 -12076.282565  20576.656942   5360.928500
PE27  -3794.903637 -17761.109048 -23363.165842    610.406997
PE30  13682.926699 -23680.988973 -11318.280730   5430.192678
PE31 -14031.733037  23723.285771  10792.338836   1008.946295
PG01 -13256.038420  16467.008069  15722.799290   -100.929170
PG02  14402.840715   6258.160409 -20872.973955    -31.013387
PG03 -21766.997843  13673.758996  -6578.725760    149.312911
PG05  24039.574581  -1272.231970 -11573.077386     -0.951229
PG06   7400.755276  20658.281512 -14922.234871    349.096409
PG07  -5783.537242  25526.249181  -2415.214673    106.130899
PG08 -20724.710809  -1435.076865  16687.660244   -118.729682
PG09  -3837.902104  15847.104388 -21007.057445    500.177548
PG10  -4888.400899 -14427.052260  21793.715293    174.280204
PG11 -12514.740635  11890.065813  19679.167847   -709.548401
PG12  24399.832722  -9923.591108  -2749.117104    299.515995
PG13  21514.584437   9974.529481  11872.744962    -86.982700
PG14 -18387.210339 -19181.170809   2432.030288    -96.685098
PG15  19120.802898  -3618.353017  18003.137395   -342.962398
PG16 -23129.885405  -2191.391203 -13410.506756      4.035367
PG17  12128.800559  20846.098540  11658.147059    -43.711304
PG18 -15120.488655   7072.813536  20147.661088     68.611786
PG19  18554.869222  18849.664123   1194.791866   -393.212550
PG20   5047.316119 -18337.976618  18371.919711    517.333567
PG21   1213.867467 -26549.856101   1565.772885   -320.710039
PG22 -24434.072014  10261.364772   1708.505220   -547.747122
PG23 -12933.425193   9291.034854 -21003.473227   -208.618247
PG24  14585.340526 -12186.482353  18302.541963    -56.788196
PG25  15869.425505 -16326.168444 -13656.038999   -662.262128
PG26 -16051.606784  -8224.229416 -19550.315023     10.384309
PG27 -22935.710422 -10864.658955   8196.998488     -5.625508
PG28   1197.209148  15180.645038  22393.562186    749.899161
PG29   5358.624091 -14457.399208 -21648.660222    356.275666
PG30   1207.050855  25163.836619   8154.347466      9.681824
PG31  -8615.223460 -18534.339820 -16695.352927     86.506424
PG32 -14277.054294 -20046.249683  10150.582457   -391.731850
PJ01 -32045.635846  21053.629944 -12883.191368   -311.441791
PJ02 -25318.562143  32353.024865  -5643.505512      0.224516
PJ03 -26548.228628  22362.774458  29049.309139      0.297502
PR01 -19104.020071  -8417.224675  14643.678916     33.515016
PR02 -25092.893991     74.204126  -4696.805281    334.664469
PR03 -14752.696209   7961.355432 -19208.361636    146.057972
PR04   4745.026027  11125.030521 -22445.080420    280.051022
PR05  20560.062455   7760.719425 -12928.129714     13.179641
PR07  14243.440339  -8149.446581  19544.311239    -49.395337
PR08  -3958.142175 -11163.375050  22638.094743     20.911734
PR09  16836.268757 -10083.689481  16354.979544     33.627768
PR10  15322.170928 -20407.349698   1320.416251     33.583031
PR11   4651.363108 -19624.565107 -15626.922206    -44.008323
PR13 -16359.312017   9835.688641 -16924.530412    -15.724847
PR14 -15191.234750  20432.931453  -1372.674818     32.018402
PR15  -8075.194927  21005.780424  12116.434321    -17.735727
PR16   7789.343963   8053.727121  22907.617131    104.028056
PR17  -4510.185928  13475.714035  21200.772978    172.516040
PR18   6087.767759  23007.550324   9123.422527     26.134281
PR19  12989.010275  20369.160669  -8208.529900    -60.666532
PR20  12609.896374   4431.564940 -21713.176618   -355.723462
PR21   4198.512113 -13765.990664 -21052.726447     -9.067751
PR22  -7364.374501 -23494.776953  -6889.545251    -64.970490
PR23 -14097.968252 -17386.158919  12216.314096    184.587162
PR24 -12358.055313  -2944.800879  22093.313309   -172.593187
PR26  13165.272445   5746.981022 -21077.260744     24.440764
EOF
